{
  "type": "FeatureCollection",
  "features": [
    {
      "type": "Feature",
      "properties": {
        "norad_id": 34885,
        "name": "COSMOS 2251 DEB",
        "group": "cosmos-2251-debris",
        "lat": 70.9692102482278,
        "lon": -35.99505101498477,
        "alt_km": 724.717727612282,
        "timestamp": "2025-12-03T15:48:03.461619+00:00",
        "meta_object_name": "COSMOS 2251 DEB",
        "meta_object_id": "1993-036ACY",
        "meta_epoch": "2025-12-03T01:01:17.738688",
        "meta_mean_motion": 14.5142198,
        "meta_eccentricity": 0.00154658,
        "meta_inclination": 74.0311,
        "meta_ra_of_asc_node": 201.2789,
        "meta_arg_of_pericenter": 287.0539,
        "meta_mean_anomaly": 197.0279,
        "meta_ephemeris_type": 0,
        "meta_classification_type": "U",
        "meta_norad_cat_id": 34885,
        "meta_element_set_no": 999,
        "meta_rev_at_epoch": 87338,
        "meta_bstar": 0.00082938921,
        "meta_mean_motion_dot": 3.288e-05,
        "meta_mean_motion_ddot": 0,
        "tle_line1": "1 34885U 93036ACY 25337.04256642  .00003288  00000+0  82939-3 0  9992",
        "tle_line2": "2 34885  74.0311 201.2789 0015465 287.0539 197.0279 14.51421980873389"
      },
      "geometry": {
        "type": "Point",
        "coordinates": [
          -35.99505101498477,
          70.9692102482278
        ]
      }
    },
    {
      "type": "Feature",
      "properties": {
        "norad_id": 34886,
        "name": "COSMOS 2251 DEB",
        "group": "cosmos-2251-debris",
        "lat": -59.74399103371448,
        "lon": 50.221073654404364,
        "alt_km": 478.9155820771284,
        "timestamp": "2025-12-03T15:48:03.461628+00:00",
        "meta_object_name": "COSMOS 2251 DEB",
        "meta_object_id": "1993-036ACZ",
        "meta_epoch": "2025-12-02T21:33:25.254144",
        "meta_mean_motion": 15.36781254,
        "meta_eccentricity": 0.00310818,
        "meta_inclination": 73.9522,
        "meta_ra_of_asc_node": 202.2947,
        "meta_arg_of_pericenter": 28.5971,
        "meta_mean_anomaly": 331.6931,
        "meta_ephemeris_type": 0,
        "meta_classification_type": "U",
        "meta_norad_cat_id": 34886,
        "meta_element_set_no": 999,
        "meta_rev_at_epoch": 62847,
        "meta_bstar": 0.0022652604,
        "meta_mean_motion_dot": 0.00083623,
        "meta_mean_motion_ddot": 0,
        "tle_line1": "1 34886U 93036ACZ 25336.89820896  .00083623  00000+0  22653-2 0  9990",
        "tle_line2": "2 34886  73.9522 202.2947 0031081  28.5971 331.6931 15.36781254628475"
      },
      "geometry": {
        "type": "Point",
        "coordinates": [
          50.221073654404364,
          -59.74399103371448
        ]
      }
    },
    {
      "type": "Feature",
      "properties": {
        "norad_id": 34907,
        "name": "COSMOS 2251 DEB",
        "group": "cosmos-2251-debris",
        "lat": 72.58470325916475,
        "lon": -178.2759677479354,
        "alt_km": 452.5879433387872,
        "timestamp": "2025-12-03T15:48:03.461637+00:00",
        "meta_object_name": "COSMOS 2251 DEB",
        "meta_object_id": "1993-036ADC",
        "meta_epoch": "2025-12-03T07:33:59.709888",
        "meta_mean_motion": 15.36059766,
        "meta_eccentricity": 0.00173019,
        "meta_inclination": 73.9746,
        "meta_ra_of_asc_node": 68.8586,
        "meta_arg_of_pericenter": 354.083,
        "meta_mean_anomaly": 6.0168,
        "meta_ephemeris_type": 0,
        "meta_classification_type": "U",
        "meta_norad_cat_id": 34907,
        "meta_element_set_no": 999,
        "meta_rev_at_epoch": 87828,
        "meta_bstar": 0.0090237606,
        "meta_mean_motion_dot": 0.00332594,
        "meta_mean_motion_ddot": 0,
        "tle_line1": "1 34907U 93036ADC 25337.31527442  .00332594  00000+0  90238-2 0  9991",
        "tle_line2": "2 34907  73.9746  68.8586 0017301 354.0830   6.0168 15.36059766878289"
      },
      "geometry": {
        "type": "Point",
        "coordinates": [
          -178.2759677479354,
          72.58470325916475
        ]
      }
    },
    {
      "type": "Feature",
      "properties": {
        "norad_id": 34908,
        "name": "COSMOS 2251 DEB",
        "group": "cosmos-2251-debris",
        "lat": -72.1459824769742,
        "lon": -77.11228233050777,
        "alt_km": 800.5721589987343,
        "timestamp": "2025-12-03T15:48:03.461646+00:00",
        "meta_object_name": "COSMOS 2251 DEB",
        "meta_object_id": "1993-036ADD",
        "meta_epoch": "2025-12-02T22:43:00.720768",
        "meta_mean_motion": 14.37350026,
        "meta_eccentricity": 0.00398708,
        "meta_inclination": 74.0586,
        "meta_ra_of_asc_node": 41.6515,
        "meta_arg_of_pericenter": 61.1367,
        "meta_mean_anomaly": 119.0003,
        "meta_ephemeris_type": 0,
        "meta_classification_type": "U",
        "meta_norad_cat_id": 34908,
        "meta_element_set_no": 999,
        "meta_rev_at_epoch": 87138,
        "meta_bstar": 0.00065874656,
        "meta_mean_motion_dot": 1.959e-05,
        "meta_mean_motion_ddot": 0,
        "tle_line1": "1 34908U 93036ADD 25336.94653612  .00001959  00000+0  65875-3 0  9997",
        "tle_line2": "2 34908  74.0586  41.6515 0039870  61.1367 119.0003 14.37350026871381"
      },
      "geometry": {
        "type": "Point",
        "coordinates": [
          -77.11228233050777,
          -72.1459824769742
        ]
      }
    },
    {
      "type": "Feature",
      "properties": {
        "norad_id": 34909,
        "name": "COSMOS 2251 DEB",
        "group": "cosmos-2251-debris",
        "lat": 23.463397100228715,
        "lon": -92.72510639856249,
        "alt_km": 621.5862728691045,
        "timestamp": "2025-12-03T15:48:03.461654+00:00",
        "meta_object_name": "COSMOS 2251 DEB",
        "meta_object_id": "1993-036ADE",
        "meta_epoch": "2025-12-02T16:20:39.593184",
        "meta_mean_motion": 14.77677518,
        "meta_eccentricity": 0.00852182,
        "meta_inclination": 74.0135,
        "meta_ra_of_asc_node": 96.3432,
        "meta_arg_of_pericenter": 234.3085,
        "meta_mean_anomaly": 125.0138,
        "meta_ephemeris_type": 0,
        "meta_classification_type": "U",
        "meta_norad_cat_id": 34909,
        "meta_element_set_no": 999,
        "meta_rev_at_epoch": 66703,
        "meta_bstar": 0.00090528683,
        "meta_mean_motion_dot": 6.857e-05,
        "meta_mean_motion_ddot": 0,
        "tle_line1": "1 34909U 93036ADE 25336.68101381  .00006857  00000+0  90529-3 0  9996",
        "tle_line2": "2 34909  74.0135  96.3432 0085218 234.3085 125.0138 14.77677518667038"
      },
      "geometry": {
        "type": "Point",
        "coordinates": [
          -92.72510639856249,
          23.463397100228715
        ]
      }
    },
    {
      "type": "Feature",
      "properties": {
        "norad_id": 34910,
        "name": "COSMOS 2251 DEB",
        "group": "cosmos-2251-debris",
        "lat": 12.715963819295059,
        "lon": 119.49776049047064,
        "alt_km": 1368.4668674383738,
        "timestamp": "2025-12-03T15:48:03.461663+00:00",
        "meta_object_name": "COSMOS 2251 DEB",
        "meta_object_id": "1993-036ADF",
        "meta_epoch": "2025-12-02T16:32:32.334432",
        "meta_mean_motion": 13.37643089,
        "meta_eccentricity": 0.0468107,
        "meta_inclination": 73.8742,
        "meta_ra_of_asc_node": 117.2836,
        "meta_arg_of_pericenter": 237.8282,
        "meta_mean_anomaly": 146.7075,
        "meta_ephemeris_type": 0,
        "meta_classification_type": "U",
        "meta_norad_cat_id": 34910,
        "meta_element_set_no": 999,
        "meta_rev_at_epoch": 81390,
        "meta_bstar": 0.001305183,
        "meta_mean_motion_dot": 1.267e-05,
        "meta_mean_motion_ddot": 0,
        "tle_line1": "1 34910U 93036ADF 25336.68926313  .00001267  00000+0  13052-2 0  9993",
        "tle_line2": "2 34910  73.8742 117.2836 0468107 237.8282 146.7075 13.37643089813901"
      },
      "geometry": {
        "type": "Point",
        "coordinates": [
          119.49776049047064,
          12.715963819295059
        ]
      }
    },
    {
      "type": "Feature",
      "properties": {
        "norad_id": 34911,
        "name": "COSMOS 2251 DEB",
        "group": "cosmos-2251-debris",
        "lat": 43.31498475207461,
        "lon": 66.39840696505192,
        "alt_km": 705.6766998961984,
        "timestamp": "2025-12-03T15:48:03.461687+00:00",
        "meta_object_name": "COSMOS 2251 DEB",
        "meta_object_id": "1993-036ADG",
        "meta_epoch": "2025-12-03T06:00:27.635904",
        "meta_mean_motion": 14.59344505,
        "meta_eccentricity": 0.00831696,
        "meta_inclination": 74.0412,
        "meta_ra_of_asc_node": 262.8282,
        "meta_arg_of_pericenter": 30.7099,
        "meta_mean_anomaly": 119.8806,
        "meta_ephemeris_type": 0,
        "meta_classification_type": "U",
        "meta_norad_cat_id": 34911,
        "meta_element_set_no": 999,
        "meta_rev_at_epoch": 88448,
        "meta_bstar": 0.00027458803,
        "meta_mean_motion_dot": 1.332e-05,
        "meta_mean_motion_ddot": 0,
        "tle_line1": "1 34911U 93036ADG 25337.25031986  .00001332  00000+0  27459-3 0  9991",
        "tle_line2": "2 34911  74.0412 262.8282 0083169  30.7099 119.8806 14.59344505884488"
      },
      "geometry": {
        "type": "Point",
        "coordinates": [
          66.39840696505192,
          43.31498475207461
        ]
      }
    }
  ]
}